BEIDOU-2 IGSO-1 (C06)   
1 36828U 10036A   25087.92097250 -.00000107  00000+0  00000+0 0  9990
2 36828  54.2665 166.9908 0046170 211.7421 242.8611  1.00248251 53760
BEIDOU-2 G4 (C04)       
1 37210U 10057A   25089.78537473 -.00000115  00000+0  00000+0 0  9990
2 37210   2.5461  70.4366 0006473 206.8137 353.8825  1.00270461 52840
BEIDOU-2 IGSO-2 (C07)   
1 37256U 10068A   25089.80036469 -.00000196  00000+0  00000+0 0  9993
2 37256  48.3505 277.3047 0039707 210.6293  95.8890  1.00259899 52345
BEIDOU-2 IGSO-3 (C08)   
1 37384U 11013A   25089.81516020 -.00000190  00000+0  00000+0 0  9997
2 37384  61.7811  44.3549 0029952 182.6324   2.8410  1.00285344 51203
BEIDOU-2 IGSO-4 (C09)   
1 37763U 11038A   25082.70190369 -.00000060  00000+0  00000+0 0  9996
2 37763  54.5715 169.7029 0137042 229.6463 126.0160  1.00250470 50121
BEIDOU-2 IGSO-5 (C10)   
1 37948U 11073A   25089.96202237 -.00000146  00000+0  00000+0 0  9998
2 37948  48.4870 277.0041 0101673 219.1780 134.6136  1.00265856 48954
BEIDOU-2 G5 (C05)       
1 38091U 12008A   25090.05097243  .00000055  00000+0  00000+0 0  9996
2 38091   2.4690  71.2396 0012394 257.6405 296.9219  1.00267167 48033
BEIDOU-2 M3 (C11)       
1 38250U 12018A   25089.12746160 -.00000049  00000+0  00000+0 0  9993
2 38250  56.1274 319.7971 0021196 273.2244  86.5858  1.86233559 87675
BEIDOU-2 M4 (C12)       
1 38251U 12018B   25086.91113890 -.00000034  00000+0  00000+0 0  9990
2 38251  56.0334 319.1214 0012294 279.6034  80.3161  1.86232018 87636
BEIDOU-2 M6 (C14)       
1 38775U 12050B   25086.08409456  .00000041  00000+0  00000+0 0  9998
2 38775  56.1517  77.7225 0014478 336.8523  23.1009  1.86230922 84988
BEIDOU-2 G6 (C02)       
1 38953U 12059A   25089.79785010 -.00000177  00000+0  00000+0 0  9990
2 38953   3.2926  78.0471 0010368 304.3164 177.3189  1.00270476 45460
BEIDOU-3S IGSO-1S (C31) 
1 40549U 15019A   25089.08239237 -.00000144  00000+0  00000+0 0  9994
2 40549  50.0342 300.7914 0037405 191.5186 176.8808  1.00294227 36624
BEIDOU-3S M2S (C58)     
1 40748U 15037A   25089.79815302 -.00000052  00000+0  00000+0 0  9994
2 40748  55.2552 317.2646 0008380 268.6527  91.2982  1.86229010 65868
BEIDOU-3S M1S (C57)     
1 40749U 15037B   25088.98854093 -.00000046  00000+0  00000+0 0  9998
2 40749  55.2519 317.2851 0004380  16.8690 343.1962  1.86253656 65859
BEIDOU-2 IGSO-6 (C13)   
1 41434U 16021A   25088.84366433 -.00000154  00000+0  00000+0 0  9995
2 41434  59.6026  42.4724 0052825 230.2676 312.7751  1.00259023 33012
BEIDOU-2 G7 (C03)       
1 41586U 16037A   25089.98980869 -.00000356  00000+0  00000+0 0  9995
2 41586   1.5736  67.8082 0010309 335.5559 252.1173  1.00271689 32333
BEIDOU-3 M1 (C19)       
1 43001U 17069A   25089.07153284  .00000014  00000+0  00000+0 0  9998
2 43001  56.3039  77.7565 0012526 306.9543  52.9305  1.86231054 50334
BEIDOU-3 M2 (C20)       
1 43002U 17069B   25090.08323067  .00000005  00000+0  00000+0 0  9990
2 43002  56.3041  77.7591 0010152 326.2508  33.6783  1.86230779 50346
BEIDOU-3 M7 (C27)       
1 43107U 18003A   25089.82976262 -.00000054  00000+0  00000+0 0  9991
2 43107  54.7132 317.7284 0004881  67.6458 292.4525  1.86232309 49105
BEIDOU-3 M8 (C28)       
1 43108U 18003B   25089.77255038 -.00000053  00000+0  00000+0 0  9996
2 43108  54.7063 317.7144 0002826 284.4570  75.5584  1.86230792 49104
BEIDOU-3 M4 (C22)       
1 43207U 18018A   25089.13969878  .00000013  00000+0  00000+0 0  9991
2 43207  56.2627  77.8337 0007293 346.0882  13.8910  1.86230953 48475
BEIDOU-3 M3 (C21)       
1 43208U 18018B   25089.20622010  .00000013  00000+0  00000+0 0  9994
2 43208  56.2621  77.8355 0010182 316.8743  43.0448  1.86231000 48477
BEIDOU-3 M9 (C29)       
1 43245U 18029A   25089.96190801 -.00000051  00000+0  00000+0 0  9991
2 43245  54.5878 315.4031 0000770  12.8874 347.1585  1.86232342 47643
BEIDOU-3 M10 (C30)      
1 43246U 18029B   25089.35612944 -.00000048  00000+0  00000+0 0  9998
2 43246  54.5860 315.4515 0004952  19.8798 340.1864  1.86228872 47613
BEIDOU-2 IGSO-7 (C16)   
1 43539U 18057A   25089.69330291 -.00000115  00000+0  00000+0 0  9998
2 43539  55.1570 166.9036 0087077 235.4988 148.5915  1.00280534 24684
BEIDOU-3 M5 (C23)       
1 43581U 18062A   25087.97065882  .00000015  00000+0  00000+0 0  9999
2 43581  54.1052 197.4417 0002610 286.3336  73.6308  1.86228425 45344
BEIDOU-3 M6 (C24)       
1 43582U 18062B   25087.83506422  .00000014  00000+0  00000+0 0  9994
2 43582  54.1049 197.4355 0005177  35.1710 324.8554  1.86229175 45346
BEIDOU-3 M12 (C26)      
1 43602U 18067A   25089.38103721  .00000024  00000+0  00000+0 0  9990
2 43602  54.1972 196.0906 0007645  32.8728 327.1797  1.86227753 44856
BEIDOU-3 M11 (C25)      
1 43603U 18067B   25085.75611696  .00000000  00000+0  00000+0 0  9997
2 43603  54.1951 196.1779 0004285  25.1171 334.8907  1.86227242 44814
BEIDOU-3 M13 (C32)      
1 43622U 18072A   25088.93736433  .00000015  00000+0  00000+0 0  9990
2 43622  56.2348  77.3634 0009059 305.6993  54.2162  1.86231133 44382
BEIDOU-3 M14 (C33)      
1 43623U 18072B   25089.33979612  .00000010  00000+0  00000+0 0  9999
2 43623  56.2370  77.3435 0006742 326.0925  33.8617  1.86231125 44384
BEIDOU-3 M16 (C35)      
1 43647U 18078A   25088.96351677 -.00000045  00000+0  00000+0 0  9993
2 43647  54.4851 315.5127 0008199  25.4105 334.6785  1.86232154 43882
BEIDOU-3 M15 (C34)      
1 43648U 18078B   25089.62970193 -.00000050  00000+0  00000+0 0  9994
2 43648  54.4803 315.4912 0005197  34.7143 325.3651  1.86232078 43920
BEIDOU-3 G1 (C59)       
1 43683U 18085A   25089.82682346 -.00000279  00000+0  00000+0 0  9996
2 43683   2.9079 100.1348 0002894 355.2735 170.7507  1.00272145 23614
BEIDOU-3 M17 (C36)      
1 43706U 18093A   25089.24697871  .00000023  00000+0  00000+0 0  9992
2 43706  54.1882 197.3578 0007676 287.1736  72.7437  1.86228132 43279
BEIDOU-3 M18 (C37)      
1 43707U 18093B   25085.88826552  .00000000  00000+0  00000+0 0  9994
2 43707  54.1897 197.4635 0006054 325.5014  34.4441  1.86229653 43208
BEIDOU-3 IGSO-1 (C38)   
1 44204U 19023A   25089.76919791 -.00000222  00000+0  00000+0 0  9997
2 44204  58.0688  42.2317 0021528 227.5292 314.8478  1.00268233  2762
BEIDOU-2 G8 (C01)       
1 44231U 19027A   25089.79142104 -.00000250  00000+0  00000+0 0  9991
2 44231   1.4928  74.6880 0005545 253.0175 290.1530  1.00269799 21630
BEIDOU-3 IGSO-2 (C39)   
1 44337U 19035A   25089.68459029 -.00000113  00000+0  00000+0 0  9990
2 44337  55.1992 162.7564 0035583 207.5954 181.6830  1.00295276 21227
BEIDOU-3 M24 (C46)      
1 44542U 19061A   25089.18060517  .00000023  00000+0  00000+0 0  9991
2 44542  54.4158 197.7030 0007698   7.9034 352.1087  1.86228887 37521
BEIDOU-3 M23 (C45)      
1 44543U 19061B   25090.09615486  .00000025  00000+0  00000+0 0  9997
2 44543  54.4144 197.6407 0004413 355.8955 170.6326  1.86228977 37533
BEIDOU-3 IGSO-3 (C40)   
1 44709U 19073A   25089.93619953 -.00000175  00000+0  00000+0 0  9995
2 44709  55.5600 285.6691 0042463 181.6286 178.3293  1.00269269 19991
BEIDOU-3 M22 (C44)      
1 44793U 19078A   25089.56079525 -.00000050  00000+0  00000+0 0  9999
2 44793  54.3317 315.3887 0007164  32.0878 328.0014  1.86231924 36398
BEIDOU-3 M21 (C43)      
1 44794U 19078B   25089.69245694 -.00000050  00000+0  00000+0 0  9996
2 44794  54.3051 315.3540 0005172  28.3291 331.7438  1.86227603 36394
BEIDOU-3 M19 (C41)      
1 44864U 19090A   25090.09815368  .00000004  00000+0  00000+0 0  9993
2 44864  56.1702  77.4800 0020098 288.0204 177.1790  1.86231336 35977
BEIDOU-3 M20 (C42)      
1 44865U 19090B   25089.38211272  .00000010  00000+0  00000+0 0  9995
2 44865  56.1709  77.5376 0017803 299.7168 135.0893  1.86231267 35950
BEIDOU-3 G2 (C60)       
1 45344U 20017A   25089.69819758 -.00000144  00000+0  00000+0 0  9995
2 45344   2.7391  38.6479 0002878 322.1388 158.9212  1.00271809 18817
BEIDOU-3 G3 (C61)       
1 45807U 20040A   25089.86904333 -.00000357  00000+0  00000+0 0  9994
2 45807   1.3780  61.9135 0002821 316.4361 233.5310  1.00273176 17627
BEIDOU-3 G4 (C62)       
1 56564U 23066A   25089.92828961 -.00000118  00000+0  00000+0 0  9991
2 56564   1.4145 290.7482 0002134 207.1722 184.7814  1.00270003  6963
BEIDOU-3 M28 (C50)      
1 58654U 23207A   25089.23610137  .00000009  00000+0  00000+0 0  9996
2 58654  55.3567  77.3261 0004973 300.1250  59.8241  1.86231916  8577
BEIDOU-3 M26 (C48)      
1 58655U 23207B   25090.10967598  .00000002  00000+0  00000+0 0  9994
2 58655  55.3597  77.2824 0005557 285.5750  74.3572  1.86231460  8578
BEIDOU-3 M25 (C47)      
1 61186U 24168B   25088.86578986 -.00000047  00000+0  00000+0 0  9993
2 61186  54.8593 317.6365 0004164 308.6425  55.5093  1.86229790  3512
BEIDOU-3 M27 (C49)      
1 61187U 24168C   25088.39558742 -.00000044  00000+0  00000+0 0  9997
2 61187  54.8552 317.6375 0002717  14.5799 169.1867  1.86229964   979
